CCSDS_OMM_VERS = 2.0
CREATION_DATE  = 
ORIGINATOR     = 

OBJECT_NAME    = SL-14 R/B
OBJECT_ID      = 1988-001B
CENTER_NAME    = EARTH
REF_FRAME      = TEME
TIME_SYSTEM    = UTC
MEAN_ELEMENT_THEORY = SGP/SGP4

EPOCH          = 2025-12-01T06:13:43.863744
MEAN_MOTION    = 14.85403891
ECCENTRICITY   = .00174484
INCLINATION    = 82.5122
RA_OF_ASC_NODE = 287.9457
ARG_OF_PERICENTER = 199.1366
MEAN_ANOMALY   = 160.9197

EPHEMERIS_TYPE = 0
CLASSIFICATION_TYPE = U
NORAD_CAT_ID   = 18749
ELEMENT_SET_NO = 999
REV_AT_EPOCH   = 2741
BSTAR          = .75159005E-4
MEAN_MOTION_DOT = .673E-5
MEAN_MOTION_DDOT = 0

CCSDS_OMM_VERS = 2.0
CREATION_DATE  = 
ORIGINATOR     = 

OBJECT_NAME    = COSMOS 1933
OBJECT_ID      = 1988-020A
CENTER_NAME    = EARTH
REF_FRAME      = TEME
TIME_SYSTEM    = UTC
MEAN_ELEMENT_THEORY = SGP/SGP4

EPOCH          = 2025-12-01T01:52:15.197952
MEAN_MOTION    = 15.16959604
ECCENTRICITY   = .00047341
INCLINATION    = 82.5132
RA_OF_ASC_NODE = 348.4016
ARG_OF_PERICENTER = 159.6733
MEAN_ANOMALY   = 200.4690

EPHEMERIS_TYPE = 0
CLASSIFICATION_TYPE = U
NORAD_CAT_ID   = 18958
ELEMENT_SET_NO = 999
REV_AT_EPOCH   = 3527
BSTAR          = .21163567E-3
MEAN_MOTION_DOT = .4206E-4
MEAN_MOTION_DDOT = 0

CCSDS_OMM_VERS = 2.0
CREATION_DATE  = 
ORIGINATOR     = 

OBJECT_NAME    = SL-3 R/B
OBJECT_ID      = 1988-032B
CENTER_NAME    = EARTH
REF_FRAME      = TEME
TIME_SYSTEM    = UTC
MEAN_ELEMENT_THEORY = SGP/SGP4

EPOCH          = 2025-12-01T04:46:32.420640
MEAN_MOTION    = 15.18558559
ECCENTRICITY   = .00255018
INCLINATION    = 97.5066
RA_OF_ASC_NODE = 314.0020
ARG_OF_PERICENTER = 213.9748
MEAN_ANOMALY   = 145.9855

EPHEMERIS_TYPE = 0
CLASSIFICATION_TYPE = U
NORAD_CAT_ID   = 19046
ELEMENT_SET_NO = 999
REV_AT_EPOCH   = 3715
BSTAR          = .28857967E-3
MEAN_MOTION_DOT = .5943E-4
MEAN_MOTION_DDOT = 0

CCSDS_OMM_VERS = 2.0
CREATION_DATE  = 
ORIGINATOR     = 

OBJECT_NAME    = SL-16 R/B
OBJECT_ID      = 1988-039B
CENTER_NAME    = EARTH
REF_FRAME      = TEME
TIME_SYSTEM    = UTC
MEAN_ELEMENT_THEORY = SGP/SGP4

EPOCH          = 2025-12-01T06:16:23.590560
MEAN_MOTION    = 14.19593082
ECCENTRICITY   = .00201324
INCLINATION    = 71.0146
RA_OF_ASC_NODE = 276.6674
ARG_OF_PERICENTER = 135.5807
MEAN_ANOMALY   = 224.6937

EPHEMERIS_TYPE = 0
CLASSIFICATION_TYPE = U
NORAD_CAT_ID   = 19120
ELEMENT_SET_NO = 999
REV_AT_EPOCH   = 94441
BSTAR          = -.171775E-5
MEAN_MOTION_DOT = -.52E-6
MEAN_MOTION_DDOT = 0

CCSDS_OMM_VERS = 2.0
CREATION_DATE  = 
ORIGINATOR     = 

OBJECT_NAME    = COSMOS 1953
OBJECT_ID      = 1988-050A
CENTER_NAME    = EARTH
REF_FRAME      = TEME
TIME_SYSTEM    = UTC
MEAN_ELEMENT_THEORY = SGP/SGP4

EPOCH          = 2025-12-01T05:38:57.429024
MEAN_MOTION    = 15.26726465
ECCENTRICITY   = .00137135
INCLINATION    = 82.5091
RA_OF_ASC_NODE = 257.1220
ARG_OF_PERICENTER = 106.2914
MEAN_ANOMALY   = 253.9834

EPHEMERIS_TYPE = 0
CLASSIFICATION_TYPE = U
NORAD_CAT_ID   = 19210
ELEMENT_SET_NO = 999
REV_AT_EPOCH   = 2275
BSTAR          = .2880214E-3
MEAN_MOTION_DOT = .7621E-4
MEAN_MOTION_DDOT = 0

CCSDS_OMM_VERS = 2.0
CREATION_DATE  = 
ORIGINATOR     = 

OBJECT_NAME    = SL-8 R/B
OBJECT_ID      = 1988-053B
CENTER_NAME    = EARTH
REF_FRAME      = TEME
TIME_SYSTEM    = UTC
MEAN_ELEMENT_THEORY = SGP/SGP4

EPOCH          = 2025-12-01T05:09:48.328416
MEAN_MOTION    = 14.38847587
ECCENTRICITY   = .00192931
INCLINATION    = 74.0472
RA_OF_ASC_NODE = 293.9597
ARG_OF_PERICENTER = 142.2327
MEAN_ANOMALY   = 320.2350

EPHEMERIS_TYPE = 0
CLASSIFICATION_TYPE = U
NORAD_CAT_ID   = 19257
ELEMENT_SET_NO = 999
REV_AT_EPOCH   = 96243
BSTAR          = .10441123E-3
MEAN_MOTION_DOT = .296E-5
MEAN_MOTION_DDOT = 0

CCSDS_OMM_VERS = 2.0
CREATION_DATE  = 
ORIGINATOR     = 

OBJECT_NAME    = COSMOS 1975
OBJECT_ID      = 1988-093A
CENTER_NAME    = EARTH
REF_FRAME      = TEME
TIME_SYSTEM    = UTC
MEAN_ELEMENT_THEORY = SGP/SGP4

EPOCH          = 2025-12-01T02:40:35.650272
MEAN_MOTION    = 15.26201659
ECCENTRICITY   = .00120148
INCLINATION    = 82.5215
RA_OF_ASC_NODE = 216.4658
ARG_OF_PERICENTER = 149.1475
MEAN_ANOMALY   = 211.0472

EPHEMERIS_TYPE = 0
CLASSIFICATION_TYPE = U
NORAD_CAT_ID   = 19573
ELEMENT_SET_NO = 999
REV_AT_EPOCH   = 436
BSTAR          = .34323435E-3
MEAN_MOTION_DOT = .8928E-4
MEAN_MOTION_DDOT = 0

CCSDS_OMM_VERS = 2.0
CREATION_DATE  = 
ORIGINATOR     = 

OBJECT_NAME    = SL-14 R/B
OBJECT_ID      = 1988-093B
CENTER_NAME    = EARTH
REF_FRAME      = TEME
TIME_SYSTEM    = UTC
MEAN_ELEMENT_THEORY = SGP/SGP4

EPOCH          = 2025-12-01T05:03:32.695776
MEAN_MOTION    = 14.85528929
ECCENTRICITY   = .00209137
INCLINATION    = 82.5295
RA_OF_ASC_NODE = 134.4864
ARG_OF_PERICENTER = 8.2577
MEAN_ANOMALY   = 165.8041

EPHEMERIS_TYPE = 0
CLASSIFICATION_TYPE = U
NORAD_CAT_ID   = 19574
ELEMENT_SET_NO = 999
REV_AT_EPOCH   = 98641
BSTAR          = .70513422E-4
MEAN_MOTION_DOT = .635E-5
MEAN_MOTION_DDOT = 0

CCSDS_OMM_VERS = 2.0
CREATION_DATE  = 
ORIGINATOR     = 

OBJECT_NAME    = SL-16 R/B
OBJECT_ID      = 1988-102B
CENTER_NAME    = EARTH
REF_FRAME      = TEME
TIME_SYSTEM    = UTC
MEAN_ELEMENT_THEORY = SGP/SGP4

EPOCH          = 2025-12-01T05:27:23.501376
MEAN_MOTION    = 14.16137406
ECCENTRICITY   = .0013548
INCLINATION    = 71.0006
RA_OF_ASC_NODE = 358.6672
ARG_OF_PERICENTER = 170.7904
MEAN_ANOMALY   = 189.3471

EPHEMERIS_TYPE = 0
CLASSIFICATION_TYPE = U
NORAD_CAT_ID   = 19650
ELEMENT_SET_NO = 999
REV_AT_EPOCH   = 91295
BSTAR          = .11006594E-4
MEAN_MOTION_DOT = -.26E-6
MEAN_MOTION_DDOT = 0

CCSDS_OMM_VERS = 2.0
CREATION_DATE  = 
ORIGINATOR     = 

OBJECT_NAME    = INTERCOSMOS 24
OBJECT_ID      = 1989-080A
CENTER_NAME    = EARTH
REF_FRAME      = TEME
TIME_SYSTEM    = UTC
MEAN_ELEMENT_THEORY = SGP/SGP4

EPOCH          = 2025-12-01T01:33:39.841344
MEAN_MOTION    = 12.59406177
ECCENTRICITY   = .11886911
INCLINATION    = 82.6044
RA_OF_ASC_NODE = 168.5437
ARG_OF_PERICENTER = 161.5948
MEAN_ANOMALY   = 203.2295

EPHEMERIS_TYPE = 0
CLASSIFICATION_TYPE = U
NORAD_CAT_ID   = 20261
ELEMENT_SET_NO = 999
REV_AT_EPOCH   = 65438
BSTAR          = .23820147E-3
MEAN_MOTION_DOT = .829E-5
MEAN_MOTION_DDOT = 0

CCSDS_OMM_VERS = 2.0
CREATION_DATE  = 
ORIGINATOR     = 

OBJECT_NAME    = SL-14 R/B
OBJECT_ID      = 1989-080C
CENTER_NAME    = EARTH
REF_FRAME      = TEME
TIME_SYSTEM    = UTC
MEAN_ELEMENT_THEORY = SGP/SGP4

EPOCH          = 2025-12-01T05:21:35.744832
MEAN_MOTION    = 12.50398755
ECCENTRICITY   = .12308348
INCLINATION    = 82.5938
RA_OF_ASC_NODE = 236.4116
ARG_OF_PERICENTER = 49.9024
MEAN_ANOMALY   = 320.3586

EPHEMERIS_TYPE = 0
CLASSIFICATION_TYPE = U
NORAD_CAT_ID   = 20262
ELEMENT_SET_NO = 999
REV_AT_EPOCH   = 64784
BSTAR          = .1531953E-3
MEAN_MOTION_DOT = .533E-5
MEAN_MOTION_DDOT = 0

CCSDS_OMM_VERS = 2.0
CREATION_DATE  = 
ORIGINATOR     = 

OBJECT_NAME    = DELTA 1 R/B
OBJECT_ID      = 1989-089B
CENTER_NAME    = EARTH
REF_FRAME      = TEME
TIME_SYSTEM    = UTC
MEAN_ELEMENT_THEORY = SGP/SGP4

EPOCH          = 2025-12-01T04:32:14.773632
MEAN_MOTION    = 14.50557191
ECCENTRICITY   = .00706499
INCLINATION    = 97.0760
RA_OF_ASC_NODE = 193.2567
ARG_OF_PERICENTER = 74.1361
MEAN_ANOMALY   = 286.7610

EPHEMERIS_TYPE = 0
CLASSIFICATION_TYPE = U
NORAD_CAT_ID   = 20323
ELEMENT_SET_NO = 999
REV_AT_EPOCH   = 88145
BSTAR          = .11904E-3
MEAN_MOTION_DOT = .447E-5
MEAN_MOTION_DDOT = 0

