SL-14 R/B               
1 18749U 88001B   25335.25953546  .00000673  00000+0  75159-4 0  9999
2 18749  82.5122 287.9457 0017448 199.1366 160.9197 14.85403891 27412
COSMOS 1933             
1 18958U 88020A   25335.07795368  .00004206  00000+0  21164-3 0  9990
2 18958  82.5132 348.4016 0004734 159.6733 200.4690 15.16959604 35276
SL-3 R/B                
1 19046U 88032B   25335.19898635  .00005943  00000+0  28858-3 0  9992
2 19046  97.5066 314.0020 0025501 213.9748 145.9855 15.18558559 37157
SL-16 R/B               
1 19120U 88039B   25335.26138415 -.00000052  00000+0 -17177-5 0  9995
2 19120  71.0146 276.6674 0020132 135.5807 224.6937 14.19593082944416
COSMOS 1953             
1 19210U 88050A   25335.23538691  .00007621  00000+0  28802-3 0  9997
2 19210  82.5091 257.1220 0013713 106.2914 253.9834 15.26726465 22751
SL-8 R/B                
1 19257U 88053B   25335.21514269  .00000296  00000+0  10441-3 0  9995
2 19257  74.0472 293.9597 0019293 142.2327 320.2350 14.38847587962433
COSMOS 1975             
1 19573U 88093A   25335.11152373  .00008928  00000+0  34323-3 0  9998
2 19573  82.5215 216.4658 0012014 149.1475 211.0472 15.26201659  4368
SL-14 R/B               
1 19574U 88093B   25335.21079509  .00000635  00000+0  70513-4 0  9998
2 19574  82.5295 134.4864 0020913   8.2577 165.8041 14.85528929986419
SL-16 R/B               
1 19650U 88102B   25335.22735534 -.00000026  00000+0  11007-4 0  9990
2 19650  71.0006 358.6672 0013548 170.7904 189.3471 14.16137406912955
INTERCOSMOS 24          
1 20261U 89080A   25335.06504446  .00000829  00000+0  23820-3 0  9999
2 20261  82.6044 168.5437 1188691 161.5948 203.2295 12.59406177654380
SL-14 R/B               
1 20262U 89080C   25335.22333038  .00000533  00000+0  15320-3 0  9993
2 20262  82.5938 236.4116 1230834  49.9024 320.3586 12.50398755647842
DELTA 1 R/B             
1 20323U 89089B   25335.18905988  .00000447  00000+0  11904-3 0  9992
2 20323  97.0760 193.2567 0070649  74.1361 286.7610 14.50557191881456
